ISS OBJECT XW           
1 66910U 98067XW  26050.51858588  .00107927  00000+0  11156-2 0  9994
2 66910  51.6263 157.8104 0003388 356.5977   3.4994 15.63906866 12335
ISS OBJECT XX           
1 66911U 98067XX  26050.51504240  .00153219  00000+0  13523-2 0  9993
2 66911  51.6244 157.0316 0005193 349.8357  10.2534 15.67669066 12333
ISS OBJECT XY           
1 66912U 98067XY  26050.53909730  .00070748  00000+0  84295-3 0  9999
2 66912  51.6295 158.7086 0001435   4.3169 355.7836 15.60432947 12310
ISS OBJECT XZ           
1 67683U 98067XZ  26050.55831542  .00034476  00000+0  60149-3 0  9992
2 67683  51.6324 161.8342 0010270 126.3506 233.8432 15.50320477  1977
GXIBA-1                 
1 67684U 98067YA  26050.55169550  .00063458  00000+0  10517-2 0  9991
2 67684  51.6315 161.7905 0011789 118.7570 241.4605 15.51472052  1979
CORAL                   
1 67685U 98067YB  26050.49261919  .00039975  00000+0  69034-3 0  9993
2 67685  51.6320 162.1452 0012171 122.1026 238.1146 15.50514255  1962
ISS OBJECT YC           
1 67686U 98067YC  26050.55584627  .00045732  00000+0  78285-3 0  9991
2 67686  51.6326 161.8181 0007764  94.6252 265.5624 15.50749233  1972
LEOPARD                 
1 67687U 98067YD  26050.55758789  .00038200  00000+0  66306-3 0  9997
2 67687  51.6323 161.8299 0007825  97.0111 263.1768 15.50439079  1897
ISS OBJECT YE           
1 67688U 98067YE  26050.55633533  .00043193  00000+0  74278-3 0  9991
2 67688  51.6330 161.8218 0007724  94.7848 265.4023 15.50645417  1890
CREW DRAGON 12          
1 67796U 26031A   26050.57060042  .00006828  00000+0  13586-3 0  9993
2 67796  51.6323 161.9142 0008604 112.9152 247.2745 15.48140240   943
